start=new Date('2022-02-28T00:00:00.000Z').valueOf();
sats=[{"FILE":"3331200","DECAY_DATE":null,"INCLINATION":"53.2172","ARG_OF_PERICENTER":"17.4596","LAUNCH_DATE":"2021-12-02","MEAN_MOTION_DOT":"0.00018996","MEAN_MOTION_DDOT":"0.0000000000000","APOAPSIS":"447.051","OBJECT_ID":"2021-115AM","EPOCH":"2022-02-27T22:00:00.999936","BSTAR":"0.00047048000000","RA_OF_ASC_NODE":"267.5307","REF_FRAME":"TEME","TLE_LINE2":"2 49759  53.2172 267.5307 0003389  17.4596 120.3487 15.40464668  3654","NORAD_CAT_ID":"49759","MEAN_ELEMENT_THEORY":"SGP4","PERIAPSIS":"442.427","OBJECT_TYPE":"PAYLOAD","EPHEMERIS_TYPE":"0","SITE":"AFETR","RCS_SIZE":"LARGE","MEAN_MOTION":"15.40464668","OBJECT_NAME":"STARLINK-3204","CLASSIFICATION_TYPE":"U","COUNTRY_CODE":"US","TIME_SYSTEM":"UTC","CENTER_NAME":"EARTH","ECCENTRICITY":"0.00033890","TLE_LINE1":"1 49759U 21115AM  22058.91667824  .00018996  00000-0  47048-3 0  9993","MEAN_ANOMALY":"120.3487","PERIOD":"93.478","ELEMENT_SET_NO":"999","SEMIMAJOR_AXIS":"6822.874","GP_ID":"197286964","REV_AT_EPOCH":"365"},{"REV_AT_EPOCH":"365","SEMIMAJOR_AXIS":"6822.929","GP_ID":"197287214","ELEMENT_SET_NO":"999","PERIOD":"93.479","TLE_LINE1":"1 49760U 21115AN  22058.91667824  .00017102  00000-0  42493-3 0  9992","CENTER_NAME":"EARTH","ECCENTRICITY":"0.00030180","MEAN_ANOMALY":"114.3662","TIME_SYSTEM":"UTC","CLASSIFICATION_TYPE":"U","COUNTRY_CODE":"US","SITE":"AFETR","OBJECT_NAME":"STARLINK-3199","MEAN_MOTION":"15.40445898","RCS_SIZE":"MEDIUM","EPHEMERIS_TYPE":"0","PERIAPSIS":"442.735","OBJECT_TYPE":"PAYLOAD","NORAD_CAT_ID":"49760","MEAN_ELEMENT_THEORY":"SGP4","REF_FRAME":"TEME","RA_OF_ASC_NODE":"267.5357","TLE_LINE2":"2 49760  53.2166 267.5357 0003018  18.2310 114.3662 15.40445898  3658","EPOCH":"2022-02-27T22:00:00.999936","OBJECT_ID":"2021-115AN","BSTAR":"0.00042493000000","MEAN_MOTION_DDOT":"0.0000000000000","APOAPSIS":"446.854","MEAN_MOTION_DOT":"0.00017102","LAUNCH_DATE":"2021-12-02","ARG_OF_PERICENTER":"18.2310","FILE":"3331200","INCLINATION":"53.2166","DECAY_DATE":null},{"MEAN_ANOMALY":"115.1025","TLE_LINE1":"1 49761U 21115AP  22058.91667824  .00008311  00000-0  21157-3 0  9999","ECCENTRICITY":"0.00032690","CENTER_NAME":"EARTH","PERIOD":"93.478","ELEMENT_SET_NO":"999","REV_AT_EPOCH":"365","GP_ID":"197288466","SEMIMAJOR_AXIS":"6822.836","EPHEMERIS_TYPE":"0","MEAN_MOTION":"15.40477517","OBJECT_NAME":"STARLINK-3203","RCS_SIZE":"LARGE","SITE":"AFETR","COUNTRY_CODE":"US","CLASSIFICATION_TYPE":"U","TIME_SYSTEM":"UTC","TLE_LINE2":"2 49761  53.2170 267.5337 0003269  20.6169 115.1025 15.40477517  3654","RA_OF_ASC_NODE":"267.5337","REF_FRAME":"TEME","MEAN_ELEMENT_THEORY":"SGP4","NORAD_CAT_ID":"49761","OBJECT_TYPE":"PAYLOAD","PERIAPSIS":"442.471","INCLINATION":"53.2170","DECAY_DATE":null,"FILE":"3331200","MEAN_MOTION_DOT":"0.00008311","ARG_OF_PERICENTER":"20.6169","LAUNCH_DATE":"2021-12-02","APOAPSIS":"446.931","MEAN_MOTION_DDOT":"0.0000000000000","BSTAR":"0.00021157000000","OBJECT_ID":"2021-115AP","EPOCH":"2022-02-27T22:00:00.999936"},{"PERIAPSIS":"442.693","OBJECT_TYPE":"PAYLOAD","NORAD_CAT_ID":"49762","MEAN_ELEMENT_THEORY":"SGP4","RA_OF_ASC_NODE":"267.5423","REF_FRAME":"TEME","TLE_LINE2":"2 49762  53.2169 267.5423 0003012  25.6749 104.8144 15.40461444  3653","EPOCH":"2022-02-27T22:00:00.999936","OBJECT_ID":"2021-115AQ","BSTAR":"0.00046646000000","MEAN_MOTION_DDOT":"0.0000000000000","APOAPSIS":"446.804","ARG_OF_PERICENTER":"25.6749","LAUNCH_DATE":"2021-12-02","MEAN_MOTION_DOT":"0.00018827","FILE":"3331200","DECAY_DATE":null,"INCLINATION":"53.2169","SEMIMAJOR_AXIS":"6822.883","GP_ID":"197288216","REV_AT_EPOCH":"365","ELEMENT_SET_NO":"999","PERIOD":"93.478","CENTER_NAME":"EARTH","ECCENTRICITY":"0.00030120","TLE_LINE1":"1 49762U 21115AQ  22058.91667824  .00018827  00000-0  46646-3 0  9993","MEAN_ANOMALY":"104.8144","TIME_SYSTEM":"UTC","CLASSIFICATION_TYPE":"U","COUNTRY_CODE":"US","SITE":"AFETR","RCS_SIZE":"LARGE","MEAN_MOTION":"15.40461444","OBJECT_NAME":"STARLINK-3195","EPHEMERIS_TYPE":"0"},{"LAUNCH_DATE":"2021-12-02","ARG_OF_PERICENTER":"15.6606","MEAN_MOTION_DOT":"-0.00007456","DECAY_DATE":null,"INCLINATION":"53.2169","FILE":"3331200","BSTAR":"-0.00017158000000","EPOCH":"2022-02-27T22:00:00.999936","OBJECT_ID":"2021-115AR","APOAPSIS":"446.714","MEAN_MOTION_DDOT":"0.0000000000000","MEAN_ELEMENT_THEORY":"SGP4","NORAD_CAT_ID":"49763","TLE_LINE2":"2 49763  53.2169 267.5365 0002919  15.6606 117.9951 15.40470187  3650","REF_FRAME":"TEME","RA_OF_ASC_NODE":"267.5365","OBJECT_TYPE":"PAYLOAD","PERIAPSIS":"442.731","RCS_SIZE":"LARGE","MEAN_MOTION":"15.40470187","OBJECT_NAME":"STARLINK-3198","SITE":"AFETR","EPHEMERIS_TYPE":"0","TIME_SYSTEM":"UTC","COUNTRY_CODE":"US","CLASSIFICATION_TYPE":"U","PERIOD":"93.478","MEAN_ANOMALY":"117.9951","CENTER_NAME":"EARTH","ECCENTRICITY":"0.00029190","TLE_LINE1":"1 49763U 21115AR  22058.91667824 -.00007456  00000-0 -17158-3 0  9998","GP_ID":"197287465","SEMIMAJOR_AXIS":"6822.858","REV_AT_EPOCH":"365","ELEMENT_SET_NO":"999"},{"REV_AT_EPOCH":"365","GP_ID":"197287715","SEMIMAJOR_AXIS":"6822.886","ELEMENT_SET_NO":"999","PERIOD":"93.479","MEAN_ANOMALY":"110.1300","TLE_LINE1":"1 49764U 21115AS  22058.91667824  .00006357  00000-0  16428-3 0  9995","ECCENTRICITY":"0.00026620","CENTER_NAME":"EARTH","TIME_SYSTEM":"UTC","COUNTRY_CODE":"US","CLASSIFICATION_TYPE":"U","OBJECT_NAME":"STARLINK-3206","MEAN_MOTION":"15.40460445","RCS_SIZE":"LARGE","SITE":"AFETR","EPHEMERIS_TYPE":"0","OBJECT_TYPE":"PAYLOAD","PERIAPSIS":"442.935","MEAN_ELEMENT_THEORY":"SGP4","NORAD_CAT_ID":"49764","TLE_LINE2":"2 49764  53.2165 267.5427 0002662  18.2871 110.1300 15.40460445  3653","REF_FRAME":"TEME","RA_OF_ASC_NODE":"267.5427","BSTAR":"0.00016428000000","EPOCH":"2022-02-27T22:00:00.999936","OBJECT_ID":"2021-115AS","APOAPSIS":"446.568","MEAN_MOTION_DDOT":"0.0000000000000","MEAN_MOTION_DOT":"0.00006357","ARG_OF_PERICENTER":"18.2871","LAUNCH_DATE":"2021-12-02","INCLINATION":"53.2165","DECAY_DATE":null,"FILE":"3331200"},{"BSTAR":"-0.00019115000000","OBJECT_ID":"2021-115AT","EPOCH":"2022-02-27T22:00:00.999936","APOAPSIS":"446.638","MEAN_MOTION_DDOT":"0.0000000000000","MEAN_MOTION_DOT":"-0.00008261","ARG_OF_PERICENTER":"22.1315","LAUNCH_DATE":"2021-12-02","INCLINATION":"53.2169","DECAY_DATE":null,"FILE":"3331200","OBJECT_TYPE":"PAYLOAD","PERIAPSIS":"442.784","MEAN_ELEMENT_THEORY":"SGP4","NORAD_CAT_ID":"49765","TLE_LINE2":"2 49765  53.2169 267.5406 0002824  22.1315 109.4113 15.40474102  3650","RA_OF_ASC_NODE":"267.5406","REF_FRAME":"TEME","TIME_SYSTEM":"UTC","COUNTRY_CODE":"US","CLASSIFICATION_TYPE":"U","MEAN_MOTION":"15.40474102","OBJECT_NAME":"STARLINK-3227","RCS_SIZE":"LARGE","SITE":"AFETR","EPHEMERIS_TYPE":"0","REV_AT_EPOCH":"365","SEMIMAJOR_AXIS":"6822.846","GP_ID":"197287966","ELEMENT_SET_NO":"999","PERIOD":"93.478","MEAN_ANOMALY":"109.4113","TLE_LINE1":"1 49765U 21115AT  22058.91667824 -.00008261  00000-0 -19115-3 0  9990","CENTER_NAME":"EARTH","ECCENTRICITY":"0.00028240"},{"REV_AT_EPOCH":"365","SEMIMAJOR_AXIS":"6822.824","GP_ID":"197288717","ELEMENT_SET_NO":"999","PERIOD":"93.477","MEAN_ANOMALY":"109.5689","TLE_LINE1":"1 49766U 21115AU  22058.91667824  .00006631  00000-0  17080-3 0  9997","CENTER_NAME":"EARTH","ECCENTRICITY":"0.00035680","TIME_SYSTEM":"UTC","COUNTRY_CODE":"US","CLASSIFICATION_TYPE":"U","MEAN_MOTION":"15.40481477","OBJECT_NAME":"STARLINK-3190","RCS_SIZE":"LARGE","SITE":"AFETR","EPHEMERIS_TYPE":"0","OBJECT_TYPE":"PAYLOAD","PERIAPSIS":"442.255","MEAN_ELEMENT_THEORY":"SGP4","NORAD_CAT_ID":"49766","TLE_LINE2":"2 49766  53.2164 267.5442 0003568  17.7315 109.5689 15.40481477  3654","REF_FRAME":"TEME","RA_OF_ASC_NODE":"267.5442","BSTAR":"0.00017080000000","EPOCH":"2022-02-27T22:00:00.999936","OBJECT_ID":"2021-115AU","APOAPSIS":"447.124","MEAN_MOTION_DDOT":"0.0000000000000","MEAN_MOTION_DOT":"0.00006631","LAUNCH_DATE":"2021-12-02","ARG_OF_PERICENTER":"17.7315","INCLINATION":"53.2164","DECAY_DATE":null,"FILE":"3331200"},{"PERIOD":"93.479","ECCENTRICITY":"0.00031690","CENTER_NAME":"EARTH","TLE_LINE1":"1 49767U 21115AV  22058.91667824  .00024662  00000-0  60760-3 0  9995","MEAN_ANOMALY":"112.1656","SEMIMAJOR_AXIS":"6822.896","GP_ID":"197286965","REV_AT_EPOCH":"365","ELEMENT_SET_NO":"999","SITE":"AFETR","RCS_SIZE":"LARGE","MEAN_MOTION":"15.40457246","OBJECT_NAME":"STARLINK-3192","EPHEMERIS_TYPE":"0","TIME_SYSTEM":"UTC","CLASSIFICATION_TYPE":"U","COUNTRY_CODE":"US","NORAD_CAT_ID":"49767","MEAN_ELEMENT_THEORY":"SGP4","RA_OF_ASC_NODE":"267.5434","REF_FRAME":"TEME","TLE_LINE2":"2 49767  53.2168 267.5434 0003169  17.2852 112.1656 15.40457246  3659","PERIAPSIS":"442.599","OBJECT_TYPE":"PAYLOAD","LAUNCH_DATE":"2021-12-02","ARG_OF_PERICENTER":"17.2852","MEAN_MOTION_DOT":"0.00024662","FILE":"3331200","DECAY_DATE":null,"INCLINATION":"53.2168","OBJECT_ID":"2021-115AV","EPOCH":"2022-02-27T22:00:00.999936","BSTAR":"0.00060760000000","MEAN_MOTION_DDOT":"0.0000000000000","APOAPSIS":"446.923"},{"TLE_LINE2":"2 49768  53.2163 267.5466 0003523  13.4531 111.8125 15.40461914  3650","REF_FRAME":"TEME","RA_OF_ASC_NODE":"267.5466","MEAN_ELEMENT_THEORY":"SGP4","NORAD_CAT_ID":"49768","OBJECT_TYPE":"PAYLOAD","PERIAPSIS":"442.343","DECAY_DATE":null,"INCLINATION":"53.2163","FILE":"3331200","LAUNCH_DATE":"2021-12-02","ARG_OF_PERICENTER":"13.4531","MEAN_MOTION_DOT":"0.00004598","APOAPSIS":"447.151","MEAN_MOTION_DDOT":"0.0000000000000","BSTAR":"0.00012156000000","EPOCH":"2022-02-27T22:00:00.999936","OBJECT_ID":"2021-115AW","MEAN_ANOMALY":"111.8125","CENTER_NAME":"EARTH","ECCENTRICITY":"0.00035230","TLE_LINE1":"1 49768U 21115AW  22058.91667824  .00004598  00000-0  12156-3 0  9998","PERIOD":"93.478","ELEMENT_SET_NO":"999","GP_ID":"197287215","SEMIMAJOR_AXIS":"6822.882","REV_AT_EPOCH":"365","EPHEMERIS_TYPE":"0","RCS_SIZE":"LARGE","OBJECT_NAME":"STARLINK-3196","MEAN_MOTION":"15.40461914","SITE":"AFETR","COUNTRY_CODE":"US","CLASSIFICATION_TYPE":"U","TIME_SYSTEM":"UTC"}];
